<?xml version="1.0" encoding="UTF-8"?>
<gpx version="1.1" creator="OpenHikes screenshot fixture" xmlns="http://www.topografix.com/GPX/1/1">
<!--
  Screenshot fixture. Not a record of an actual walk.
  Line: OpenStreetMap relation 222506, ways chained end to end,
        thinned to 152 points within 5 m of the mapped way.
  No heights and no clock: a waymarked route carries neither.
  See Screenshots/README.md.
-->
<metadata>
<name>AV Weg 444</name>
<copyright author="OpenStreetMap contributors"><license>https://opendatacommons.org/licenses/odbl/</license></copyright>
</metadata>
<trk><name>AV Weg 444</name><trkseg>
<trkpt lat="47.602907" lon="12.946775"></trkpt>
<trkpt lat="47.602513" lon="12.946163"></trkpt>
<trkpt lat="47.602418" lon="12.945675"></trkpt>
<trkpt lat="47.602051" lon="12.944859"></trkpt>
<trkpt lat="47.601479" lon="12.944273"></trkpt>
<trkpt lat="47.601381" lon="12.943827"></trkpt>
<trkpt lat="47.600720" lon="12.942639"></trkpt>
<trkpt lat="47.600638" lon="12.942312"></trkpt>
<trkpt lat="47.601032" lon="12.941350"></trkpt>
<trkpt lat="47.601053" lon="12.940186"></trkpt>
<trkpt lat="47.600488" lon="12.939830"></trkpt>
<trkpt lat="47.600315" lon="12.939380"></trkpt>
<trkpt lat="47.600314" lon="12.938460"></trkpt>
<trkpt lat="47.600109" lon="12.938003"></trkpt>
<trkpt lat="47.599629" lon="12.937998"></trkpt>
<trkpt lat="47.598951" lon="12.938231"></trkpt>
<trkpt lat="47.598079" lon="12.939014"></trkpt>
<trkpt lat="47.596986" lon="12.939777"></trkpt>
<trkpt lat="47.596843" lon="12.940008"></trkpt>
<trkpt lat="47.595960" lon="12.940811"></trkpt>
<trkpt lat="47.595616" lon="12.940981"></trkpt>
<trkpt lat="47.594207" lon="12.942278"></trkpt>
<trkpt lat="47.594028" lon="12.942304"></trkpt>
<trkpt lat="47.593797" lon="12.942497"></trkpt>
<trkpt lat="47.593512" lon="12.942928"></trkpt>
<trkpt lat="47.593398" lon="12.942953"></trkpt>
<trkpt lat="47.593196" lon="12.943334"></trkpt>
<trkpt lat="47.592906" lon="12.943560"></trkpt>
<trkpt lat="47.592708" lon="12.943905"></trkpt>
<trkpt lat="47.592419" lon="12.944199"></trkpt>
<trkpt lat="47.592168" lon="12.944249"></trkpt>
<trkpt lat="47.591435" lon="12.945174"></trkpt>
<trkpt lat="47.591042" lon="12.945492"></trkpt>
<trkpt lat="47.590380" lon="12.946623"></trkpt>
<trkpt lat="47.589558" lon="12.947268"></trkpt>
<trkpt lat="47.589156" lon="12.947938"></trkpt>
<trkpt lat="47.588619" lon="12.948355"></trkpt>
<trkpt lat="47.588437" lon="12.948399"></trkpt>
<trkpt lat="47.588235" lon="12.948321"></trkpt>
<trkpt lat="47.587931" lon="12.948006"></trkpt>
<trkpt lat="47.587777" lon="12.947570"></trkpt>
<trkpt lat="47.587769" lon="12.946966"></trkpt>
<trkpt lat="47.587899" lon="12.946589"></trkpt>
<trkpt lat="47.588043" lon="12.946479"></trkpt>
<trkpt lat="47.588070" lon="12.946269"></trkpt>
<trkpt lat="47.587969" lon="12.945858"></trkpt>
<trkpt lat="47.587980" lon="12.945265"></trkpt>
<trkpt lat="47.587852" lon="12.944977"></trkpt>
<trkpt lat="47.587435" lon="12.944955"></trkpt>
<trkpt lat="47.587145" lon="12.943362"></trkpt>
<trkpt lat="47.587400" lon="12.942850"></trkpt>
<trkpt lat="47.587454" lon="12.942299"></trkpt>
<trkpt lat="47.587334" lon="12.941694"></trkpt>
<trkpt lat="47.587461" lon="12.941448"></trkpt>
<trkpt lat="47.587442" lon="12.940930"></trkpt>
<trkpt lat="47.587559" lon="12.940741"></trkpt>
<trkpt lat="47.587368" lon="12.939921"></trkpt>
<trkpt lat="47.587547" lon="12.939682"></trkpt>
<trkpt lat="47.588198" lon="12.939352"></trkpt>
<trkpt lat="47.588311" lon="12.939134"></trkpt>
<trkpt lat="47.588299" lon="12.938827"></trkpt>
<trkpt lat="47.588025" lon="12.938233"></trkpt>
<trkpt lat="47.588083" lon="12.937957"></trkpt>
<trkpt lat="47.588237" lon="12.937799"></trkpt>
<trkpt lat="47.589008" lon="12.937434"></trkpt>
<trkpt lat="47.588886" lon="12.937025"></trkpt>
<trkpt lat="47.588297" lon="12.936492"></trkpt>
<trkpt lat="47.588132" lon="12.936027"></trkpt>
<trkpt lat="47.587516" lon="12.935127"></trkpt>
<trkpt lat="47.587317" lon="12.935158"></trkpt>
<trkpt lat="47.587211" lon="12.935640"></trkpt>
<trkpt lat="47.587024" lon="12.935946"></trkpt>
<trkpt lat="47.586015" lon="12.935826"></trkpt>
<trkpt lat="47.585052" lon="12.936123"></trkpt>
<trkpt lat="47.584789" lon="12.936089"></trkpt>
<trkpt lat="47.584252" lon="12.935788"></trkpt>
<trkpt lat="47.584089" lon="12.935802"></trkpt>
<trkpt lat="47.583939" lon="12.935825"></trkpt>
<trkpt lat="47.583373" lon="12.936373"></trkpt>
<trkpt lat="47.583275" lon="12.936661"></trkpt>
<trkpt lat="47.583203" lon="12.937369"></trkpt>
<trkpt lat="47.583208" lon="12.938210"></trkpt>
<trkpt lat="47.582712" lon="12.939880"></trkpt>
<trkpt lat="47.582482" lon="12.940455"></trkpt>
<trkpt lat="47.582022" lon="12.940897"></trkpt>
<trkpt lat="47.581311" lon="12.942901"></trkpt>
<trkpt lat="47.580336" lon="12.944032"></trkpt>
<trkpt lat="47.579960" lon="12.944006"></trkpt>
<trkpt lat="47.579564" lon="12.944140"></trkpt>
<trkpt lat="47.579232" lon="12.943959"></trkpt>
<trkpt lat="47.578767" lon="12.943870"></trkpt>
<trkpt lat="47.578503" lon="12.943944"></trkpt>
<trkpt lat="47.578666" lon="12.943213"></trkpt>
<trkpt lat="47.578212" lon="12.942928"></trkpt>
<trkpt lat="47.577596" lon="12.942920"></trkpt>
<trkpt lat="47.577298" lon="12.943102"></trkpt>
<trkpt lat="47.576907" lon="12.943152"></trkpt>
<trkpt lat="47.576414" lon="12.942943"></trkpt>
<trkpt lat="47.576101" lon="12.942689"></trkpt>
<trkpt lat="47.575587" lon="12.942560"></trkpt>
<trkpt lat="47.575441" lon="12.942001"></trkpt>
<trkpt lat="47.575274" lon="12.942009"></trkpt>
<trkpt lat="47.575275" lon="12.941765"></trkpt>
<trkpt lat="47.575144" lon="12.941752"></trkpt>
<trkpt lat="47.575166" lon="12.941526"></trkpt>
<trkpt lat="47.574794" lon="12.941682"></trkpt>
<trkpt lat="47.574816" lon="12.941269"></trkpt>
<trkpt lat="47.574505" lon="12.941534"></trkpt>
<trkpt lat="47.574732" lon="12.940871"></trkpt>
<trkpt lat="47.574477" lon="12.940912"></trkpt>
<trkpt lat="47.574526" lon="12.940656"></trkpt>
<trkpt lat="47.574439" lon="12.940659"></trkpt>
<trkpt lat="47.574455" lon="12.940499"></trkpt>
<trkpt lat="47.574113" lon="12.940739"></trkpt>
<trkpt lat="47.574142" lon="12.940339"></trkpt>
<trkpt lat="47.573838" lon="12.940783"></trkpt>
<trkpt lat="47.573287" lon="12.941050"></trkpt>
<trkpt lat="47.573019" lon="12.940951"></trkpt>
<trkpt lat="47.572860" lon="12.941149"></trkpt>
<trkpt lat="47.572327" lon="12.941399"></trkpt>
<trkpt lat="47.572286" lon="12.941175"></trkpt>
<trkpt lat="47.572443" lon="12.940820"></trkpt>
<trkpt lat="47.572396" lon="12.939975"></trkpt>
<trkpt lat="47.572075" lon="12.940064"></trkpt>
<trkpt lat="47.571885" lon="12.939980"></trkpt>
<trkpt lat="47.572392" lon="12.938846"></trkpt>
<trkpt lat="47.572042" lon="12.938970"></trkpt>
<trkpt lat="47.571469" lon="12.938875"></trkpt>
<trkpt lat="47.571303" lon="12.938709"></trkpt>
<trkpt lat="47.571558" lon="12.938524"></trkpt>
<trkpt lat="47.571340" lon="12.938388"></trkpt>
<trkpt lat="47.571585" lon="12.938231"></trkpt>
<trkpt lat="47.571443" lon="12.938082"></trkpt>
<trkpt lat="47.571616" lon="12.938040"></trkpt>
<trkpt lat="47.571428" lon="12.937856"></trkpt>
<trkpt lat="47.571427" lon="12.937190"></trkpt>
<trkpt lat="47.571618" lon="12.937183"></trkpt>
<trkpt lat="47.571619" lon="12.936998"></trkpt>
<trkpt lat="47.571892" lon="12.936948"></trkpt>
<trkpt lat="47.572092" lon="12.936483"></trkpt>
<trkpt lat="47.572592" lon="12.936023"></trkpt>
<trkpt lat="47.571760" lon="12.935980"></trkpt>
<trkpt lat="47.571667" lon="12.935901"></trkpt>
<trkpt lat="47.572233" lon="12.935413"></trkpt>
<trkpt lat="47.571971" lon="12.935328"></trkpt>
<trkpt lat="47.571758" lon="12.935130"></trkpt>
<trkpt lat="47.571655" lon="12.935185"></trkpt>
<trkpt lat="47.571699" lon="12.934978"></trkpt>
<trkpt lat="47.571454" lon="12.934960"></trkpt>
<trkpt lat="47.571498" lon="12.934901"></trkpt>
<trkpt lat="47.571222" lon="12.934496"></trkpt>
<trkpt lat="47.570661" lon="12.933985"></trkpt>
</trkseg></trk>
</gpx>
