<?xml version="1.0" encoding="UTF-8"?>
<gpx version="1.1" creator="OpenHikes screenshot fixture" xmlns="http://www.topografix.com/GPX/1/1">
<!--
  Screenshot fixture. Not a record of an actual walk.
  Line: OpenStreetMap relation 193469, ways chained end to end,
        thinned to 192 points within 7 m of the mapped way.
  No heights and no clock: a waymarked route carries neither.
  See Screenshots/README.md.
-->
<metadata>
<name>AV Weg 493 (Königssee - Gotzenalm - Landtal)</name>
<copyright author="OpenStreetMap contributors"><license>https://opendatacommons.org/licenses/odbl/</license></copyright>
</metadata>
<trk><name>AV Weg 493 (Königssee - Gotzenalm - Landtal)</name><trkseg>
<trkpt lat="47.591104" lon="13.001370"></trkpt>
<trkpt lat="47.591455" lon="13.001960"></trkpt>
<trkpt lat="47.591597" lon="13.002590"></trkpt>
<trkpt lat="47.590952" lon="13.003091"></trkpt>
<trkpt lat="47.590708" lon="13.003664"></trkpt>
<trkpt lat="47.590418" lon="13.003690"></trkpt>
<trkpt lat="47.589921" lon="13.003323"></trkpt>
<trkpt lat="47.588897" lon="13.003568"></trkpt>
<trkpt lat="47.588307" lon="13.004379"></trkpt>
<trkpt lat="47.587202" lon="13.004774"></trkpt>
<trkpt lat="47.587157" lon="13.005398"></trkpt>
<trkpt lat="47.587030" lon="13.005634"></trkpt>
<trkpt lat="47.586536" lon="13.005057"></trkpt>
<trkpt lat="47.586033" lon="13.005806"></trkpt>
<trkpt lat="47.584625" lon="13.004873"></trkpt>
<trkpt lat="47.583381" lon="13.004389"></trkpt>
<trkpt lat="47.582630" lon="13.004396"></trkpt>
<trkpt lat="47.582266" lon="13.003985"></trkpt>
<trkpt lat="47.581975" lon="13.003887"></trkpt>
<trkpt lat="47.580764" lon="13.004186"></trkpt>
<trkpt lat="47.579269" lon="13.004100"></trkpt>
<trkpt lat="47.578802" lon="13.004423"></trkpt>
<trkpt lat="47.578485" lon="13.004449"></trkpt>
<trkpt lat="47.577680" lon="13.004100"></trkpt>
<trkpt lat="47.577286" lon="13.003537"></trkpt>
<trkpt lat="47.577005" lon="13.003602"></trkpt>
<trkpt lat="47.576646" lon="13.003248"></trkpt>
<trkpt lat="47.574994" lon="13.003912"></trkpt>
<trkpt lat="47.574326" lon="13.004336"></trkpt>
<trkpt lat="47.573144" lon="13.005426"></trkpt>
<trkpt lat="47.572138" lon="13.005762"></trkpt>
<trkpt lat="47.570494" lon="13.008037"></trkpt>
<trkpt lat="47.569651" lon="13.008368"></trkpt>
<trkpt lat="47.567823" lon="13.010002"></trkpt>
<trkpt lat="47.566922" lon="13.011597"></trkpt>
<trkpt lat="47.565856" lon="13.012447"></trkpt>
<trkpt lat="47.565534" lon="13.013084"></trkpt>
<trkpt lat="47.565385" lon="13.013020"></trkpt>
<trkpt lat="47.565325" lon="13.012619"></trkpt>
<trkpt lat="47.565517" lon="13.011470"></trkpt>
<trkpt lat="47.565610" lon="13.008641"></trkpt>
<trkpt lat="47.565545" lon="13.007866"></trkpt>
<trkpt lat="47.564966" lon="13.007300"></trkpt>
<trkpt lat="47.563969" lon="13.007395"></trkpt>
<trkpt lat="47.563238" lon="13.006641"></trkpt>
<trkpt lat="47.562038" lon="13.005829"></trkpt>
<trkpt lat="47.561526" lon="13.005719"></trkpt>
<trkpt lat="47.560448" lon="13.004808"></trkpt>
<trkpt lat="47.560068" lon="13.003834"></trkpt>
<trkpt lat="47.559489" lon="13.003207"></trkpt>
<trkpt lat="47.558912" lon="13.001611"></trkpt>
<trkpt lat="47.558082" lon="13.001160"></trkpt>
<trkpt lat="47.557274" lon="13.001445"></trkpt>
<trkpt lat="47.556831" lon="13.001310"></trkpt>
<trkpt lat="47.556348" lon="13.001421"></trkpt>
<trkpt lat="47.556198" lon="13.001247"></trkpt>
<trkpt lat="47.555929" lon="13.001508"></trkpt>
<trkpt lat="47.555177" lon="13.001556"></trkpt>
<trkpt lat="47.554370" lon="13.001120"></trkpt>
<trkpt lat="47.554309" lon="13.000596"></trkpt>
<trkpt lat="47.554003" lon="13.000306"></trkpt>
<trkpt lat="47.553680" lon="13.000223"></trkpt>
<trkpt lat="47.553485" lon="13.000488"></trkpt>
<trkpt lat="47.553313" lon="13.000425"></trkpt>
<trkpt lat="47.553378" lon="12.999322"></trkpt>
<trkpt lat="47.553692" lon="12.998814"></trkpt>
<trkpt lat="47.553948" lon="12.997838"></trkpt>
<trkpt lat="47.553967" lon="12.997203"></trkpt>
<trkpt lat="47.553882" lon="12.997127"></trkpt>
<trkpt lat="47.553559" lon="12.997800"></trkpt>
<trkpt lat="47.553000" lon="12.997847"></trkpt>
<trkpt lat="47.552625" lon="12.998575"></trkpt>
<trkpt lat="47.552700" lon="12.997361"></trkpt>
<trkpt lat="47.552994" lon="12.997312"></trkpt>
<trkpt lat="47.553256" lon="12.996682"></trkpt>
<trkpt lat="47.552828" lon="12.995625"></trkpt>
<trkpt lat="47.552738" lon="12.995616"></trkpt>
<trkpt lat="47.552707" lon="12.996388"></trkpt>
<trkpt lat="47.551757" lon="12.996847"></trkpt>
<trkpt lat="47.551611" lon="12.997123"></trkpt>
<trkpt lat="47.551617" lon="12.998008"></trkpt>
<trkpt lat="47.551515" lon="12.998064"></trkpt>
<trkpt lat="47.551323" lon="12.997629"></trkpt>
<trkpt lat="47.551049" lon="12.997364"></trkpt>
<trkpt lat="47.551011" lon="12.997080"></trkpt>
<trkpt lat="47.551390" lon="12.996464"></trkpt>
<trkpt lat="47.551412" lon="12.995948"></trkpt>
<trkpt lat="47.551210" lon="12.996322"></trkpt>
<trkpt lat="47.550408" lon="12.996610"></trkpt>
<trkpt lat="47.550139" lon="12.997032"></trkpt>
<trkpt lat="47.549935" lon="12.996836"></trkpt>
<trkpt lat="47.550157" lon="12.996144"></trkpt>
<trkpt lat="47.550632" lon="12.995507"></trkpt>
<trkpt lat="47.550611" lon="12.995389"></trkpt>
<trkpt lat="47.549438" lon="12.996213"></trkpt>
<trkpt lat="47.548648" lon="12.997345"></trkpt>
<trkpt lat="47.546515" lon="12.998679"></trkpt>
<trkpt lat="47.545727" lon="12.998296"></trkpt>
<trkpt lat="47.545539" lon="12.997786"></trkpt>
<trkpt lat="47.545115" lon="12.998216"></trkpt>
<trkpt lat="47.544822" lon="12.999015"></trkpt>
<trkpt lat="47.544456" lon="12.998940"></trkpt>
<trkpt lat="47.544098" lon="12.999181"></trkpt>
<trkpt lat="47.543450" lon="12.999229"></trkpt>
<trkpt lat="47.543178" lon="12.999390"></trkpt>
<trkpt lat="47.543059" lon="12.999637"></trkpt>
<trkpt lat="47.543055" lon="12.998709"></trkpt>
<trkpt lat="47.542812" lon="12.998575"></trkpt>
<trkpt lat="47.542508" lon="12.997314"></trkpt>
<trkpt lat="47.542559" lon="12.995952"></trkpt>
<trkpt lat="47.542113" lon="12.995866"></trkpt>
<trkpt lat="47.541384" lon="12.996027"></trkpt>
<trkpt lat="47.540996" lon="12.997360"></trkpt>
<trkpt lat="47.540775" lon="12.997031"></trkpt>
<trkpt lat="47.540410" lon="12.997430"></trkpt>
<trkpt lat="47.540437" lon="12.998242"></trkpt>
<trkpt lat="47.539864" lon="12.997953"></trkpt>
<trkpt lat="47.539652" lon="12.997618"></trkpt>
<trkpt lat="47.539732" lon="12.996713"></trkpt>
<trkpt lat="47.540092" lon="12.995760"></trkpt>
<trkpt lat="47.539807" lon="12.995929"></trkpt>
<trkpt lat="47.539182" lon="12.996734"></trkpt>
<trkpt lat="47.538908" lon="12.997662"></trkpt>
<trkpt lat="47.538810" lon="12.998534"></trkpt>
<trkpt lat="47.537472" lon="12.997125"></trkpt>
<trkpt lat="47.536434" lon="12.997260"></trkpt>
<trkpt lat="47.537076" lon="12.999283"></trkpt>
<trkpt lat="47.536681" lon="13.000463"></trkpt>
<trkpt lat="47.536555" lon="13.001262"></trkpt>
<trkpt lat="47.536620" lon="13.002384"></trkpt>
<trkpt lat="47.536352" lon="13.002743"></trkpt>
<trkpt lat="47.535837" lon="13.002990"></trkpt>
<trkpt lat="47.535475" lon="13.003371"></trkpt>
<trkpt lat="47.534769" lon="13.003172"></trkpt>
<trkpt lat="47.534118" lon="13.003504"></trkpt>
<trkpt lat="47.533530" lon="13.003542"></trkpt>
<trkpt lat="47.532726" lon="13.004363"></trkpt>
<trkpt lat="47.532317" lon="13.004406"></trkpt>
<trkpt lat="47.531991" lon="13.004900"></trkpt>
<trkpt lat="47.531133" lon="13.004819"></trkpt>
<trkpt lat="47.530524" lon="13.004567"></trkpt>
<trkpt lat="47.528271" lon="13.003119"></trkpt>
<trkpt lat="47.527963" lon="13.003451"></trkpt>
<trkpt lat="47.527721" lon="13.004028"></trkpt>
<trkpt lat="47.527260" lon="13.004426"></trkpt>
<trkpt lat="47.526905" lon="13.005488"></trkpt>
<trkpt lat="47.526682" lon="13.005613"></trkpt>
<trkpt lat="47.526693" lon="13.006040"></trkpt>
<trkpt lat="47.527105" lon="13.006502"></trkpt>
<trkpt lat="47.527041" lon="13.006784"></trkpt>
<trkpt lat="47.526518" lon="13.007571"></trkpt>
<trkpt lat="47.526060" lon="13.007981"></trkpt>
<trkpt lat="47.525669" lon="13.008117"></trkpt>
<trkpt lat="47.525393" lon="13.007822"></trkpt>
<trkpt lat="47.524552" lon="13.008292"></trkpt>
<trkpt lat="47.523944" lon="13.008304"></trkpt>
<trkpt lat="47.523219" lon="13.008843"></trkpt>
<trkpt lat="47.522527" lon="13.009075"></trkpt>
<trkpt lat="47.522452" lon="13.009560"></trkpt>
<trkpt lat="47.522366" lon="13.009589"></trkpt>
<trkpt lat="47.522340" lon="13.010176"></trkpt>
<trkpt lat="47.522945" lon="13.011423"></trkpt>
<trkpt lat="47.522842" lon="13.011840"></trkpt>
<trkpt lat="47.522955" lon="13.012709"></trkpt>
<trkpt lat="47.522701" lon="13.012934"></trkpt>
<trkpt lat="47.522671" lon="13.013190"></trkpt>
<trkpt lat="47.523128" lon="13.014474"></trkpt>
<trkpt lat="47.523322" lon="13.014677"></trkpt>
<trkpt lat="47.523455" lon="13.014454"></trkpt>
<trkpt lat="47.523490" lon="13.014795"></trkpt>
<trkpt lat="47.523378" lon="13.015156"></trkpt>
<trkpt lat="47.523238" lon="13.015150"></trkpt>
<trkpt lat="47.522685" lon="13.015063"></trkpt>
<trkpt lat="47.522205" lon="13.014678"></trkpt>
<trkpt lat="47.521891" lon="13.014985"></trkpt>
<trkpt lat="47.521739" lon="13.015458"></trkpt>
<trkpt lat="47.521434" lon="13.015725"></trkpt>
<trkpt lat="47.521442" lon="13.015941"></trkpt>
<trkpt lat="47.521572" lon="13.016214"></trkpt>
<trkpt lat="47.522450" lon="13.016925"></trkpt>
<trkpt lat="47.522519" lon="13.017266"></trkpt>
<trkpt lat="47.522773" lon="13.017614"></trkpt>
<trkpt lat="47.523023" lon="13.017793"></trkpt>
<trkpt lat="47.523499" lon="13.018512"></trkpt>
<trkpt lat="47.523809" lon="13.018717"></trkpt>
<trkpt lat="47.524549" lon="13.019777"></trkpt>
<trkpt lat="47.524822" lon="13.019902"></trkpt>
<trkpt lat="47.524830" lon="13.020148"></trkpt>
<trkpt lat="47.525161" lon="13.020534"></trkpt>
<trkpt lat="47.524881" lon="13.020583"></trkpt>
<trkpt lat="47.525351" lon="13.021250"></trkpt>
<trkpt lat="47.525227" lon="13.021359"></trkpt>
</trkseg></trk>
</gpx>
