<?xml version="1.0" encoding="UTF-8"?><gpx version="1.1" creator="OpenHikes-ui-test-no-heights" xmlns="http://www.topografix.com/GPX/1/1"><trk><name>Thumsee Loop (no heights)</name><trkseg><trkpt lat="47.718420" lon="12.831774"></trkpt><trkpt lat="47.722383" lon="12.835421"></trkpt><trkpt lat="47.725274" lon="12.827698"></trkpt><trkpt lat="47.725274" lon="12.824685"></trkpt><trkpt lat="47.725932" lon="12.818876"></trkpt><trkpt lat="47.726147" lon="12.809821"></trkpt><trkpt lat="47.721356" lon="12.802915"></trkpt><trkpt lat="47.718507" lon="12.800580"></trkpt><trkpt lat="47.723472" lon="12.807528"></trkpt><trkpt lat="47.726074" lon="12.815405"></trkpt><trkpt lat="47.726824" lon="12.822685"></trkpt><trkpt lat="47.726342" lon="12.828464"></trkpt><trkpt lat="47.722733" lon="12.834959"></trkpt><trkpt lat="47.718598" lon="12.831420"></trkpt><trkpt lat="47.718420" lon="12.831774"></trkpt></trkseg></trk></gpx>
