<?xml version="1.0" encoding="UTF-8"?><gpx version="1.1" creator="OpenHikes-ui-test-two-days" xmlns="http://www.topografix.com/GPX/1/1"><trk><name>Thumsee Day 1</name><trkseg><trkpt lat="47.718420" lon="12.831774"><ele>530.0</ele><time>2026-07-01T07:00:00Z</time></trkpt><trkpt lat="47.719220" lon="12.831774"><ele>534.0</ele><time>2026-07-01T07:10:00Z</time></trkpt><trkpt lat="47.720020" lon="12.831774"><ele>538.0</ele><time>2026-07-01T07:20:00Z</time></trkpt><trkpt lat="47.720820" lon="12.831774"><ele>542.0</ele><time>2026-07-01T07:30:00Z</time></trkpt><trkpt lat="47.721620" lon="12.831774"><ele>546.0</ele><time>2026-07-01T07:40:00Z</time></trkpt><trkpt lat="47.722420" lon="12.831774"><ele>550.0</ele><time>2026-07-01T07:50:00Z</time></trkpt></trkseg></trk><trk><name>Thumsee Day 2</name><trkseg><trkpt lat="47.722000" lon="12.838000"><ele>530.0</ele><time>2026-07-02T07:00:00Z</time></trkpt><trkpt lat="47.722800" lon="12.838000"><ele>534.0</ele><time>2026-07-02T07:10:00Z</time></trkpt><trkpt lat="47.723600" lon="12.838000"><ele>538.0</ele><time>2026-07-02T07:20:00Z</time></trkpt><trkpt lat="47.724400" lon="12.838000"><ele>542.0</ele><time>2026-07-02T07:30:00Z</time></trkpt><trkpt lat="47.725200" lon="12.838000"><ele>546.0</ele><time>2026-07-02T07:40:00Z</time></trkpt><trkpt lat="47.726000" lon="12.838000"><ele>550.0</ele><time>2026-07-02T07:50:00Z</time></trkpt></trkseg></trk></gpx>
