<?xml version="1.0" encoding="UTF-8"?><gpx version="1.1" creator="OpenTrails-simulated-fast-walk" xmlns="http://www.topografix.com/GPX/1/1"><trk><name>Thumsee Loop (fast, simulated)</name><trkseg><trkpt lat="47.718420" lon="12.831774"><ele>533.50</ele><time>2026-01-01T00:00:00Z</time></trkpt><trkpt lat="47.718426" lon="12.831642"><ele>533.20</ele><time>2026-01-01T00:00:01Z</time></trkpt><trkpt lat="47.718465" lon="12.831591"><ele>533.00</ele><time>2026-01-01T00:00:02Z</time></trkpt><trkpt lat="47.718518" lon="12.831527"><ele>532.80</ele><time>2026-01-01T00:00:03Z</time></trkpt><trkpt lat="47.718556" lon="12.831476"><ele>532.60</ele><time>2026-01-01T00:00:04Z</time></trkpt><trkpt lat="47.718598" lon="12.831420"><ele>532.40</ele><time>2026-01-01T00:00:05Z</time></trkpt><trkpt lat="47.718823" lon="12.831149"><ele>531.90</ele><time>2026-01-01T00:00:06Z</time></trkpt><trkpt lat="47.719219" lon="12.830877"><ele>532.20</ele><time>2026-01-01T00:00:07Z</time></trkpt><trkpt lat="47.719317" lon="12.830874"><ele>532.40</ele><time>2026-01-01T00:00:08Z</time></trkpt><trkpt lat="47.719474" lon="12.830948"><ele>533.00</ele><time>2026-01-01T00:00:09Z</time></trkpt><trkpt lat="47.719767" lon="12.831164"><ele>534.90</ele><time>2026-01-01T00:00:10Z</time></trkpt><trkpt lat="47.720120" lon="12.831598"><ele>539.90</ele><time>2026-01-01T00:00:11Z</time></trkpt><trkpt lat="47.720309" lon="12.831929"><ele>543.60</ele><time>2026-01-01T00:00:12Z</time></trkpt><trkpt lat="47.720513" lon="12.832338"><ele>547.70</ele><time>2026-01-01T00:00:13Z</time></trkpt><trkpt lat="47.720533" lon="12.832447"><ele>548.60</ele><time>2026-01-01T00:00:14Z</time></trkpt><trkpt lat="47.720748" lon="12.832762"><ele>551.70</ele><time>2026-01-01T00:00:15Z</time></trkpt><trkpt lat="47.720949" lon="12.833269"><ele>555.00</ele><time>2026-01-01T00:00:16Z</time></trkpt><trkpt lat="47.721609" lon="12.834000"><ele>561.50</ele><time>2026-01-01T00:00:17Z</time></trkpt><trkpt lat="47.721691" lon="12.834131"><ele>562.30</ele><time>2026-01-01T00:00:18Z</time></trkpt><trkpt lat="47.722003" lon="12.834817"><ele>567.00</ele><time>2026-01-01T00:00:19Z</time></trkpt><trkpt lat="47.722097" lon="12.834885"><ele>568.00</ele><time>2026-01-01T00:00:20Z</time></trkpt><trkpt lat="47.722164" lon="12.834896"><ele>568.60</ele><time>2026-01-01T00:00:21Z</time></trkpt><trkpt lat="47.722222" lon="12.834880"><ele>569.10</ele><time>2026-01-01T00:00:22Z</time></trkpt><trkpt lat="47.722329" lon="12.834765"><ele>570.10</ele><time>2026-01-01T00:00:23Z</time></trkpt><trkpt lat="47.722339" lon="12.835235"><ele>572.60</ele><time>2026-01-01T00:00:24Z</time></trkpt><trkpt lat="47.722383" lon="12.835421"><ele>573.80</ele><time>2026-01-01T00:00:25Z</time></trkpt><trkpt lat="47.722383" lon="12.835683"><ele>575.50</ele><time>2026-01-01T00:00:26Z</time></trkpt><trkpt lat="47.722413" lon="12.835819"><ele>576.60</ele><time>2026-01-01T00:00:27Z</time></trkpt><trkpt lat="47.722422" lon="12.835863"><ele>576.90</ele><time>2026-01-01T00:00:28Z</time></trkpt><trkpt lat="47.722605" lon="12.835383"><ele>581.10</ele><time>2026-01-01T00:00:29Z</time></trkpt><trkpt lat="47.722725" lon="12.834985"><ele>584.60</ele><time>2026-01-01T00:00:30Z</time></trkpt><trkpt lat="47.722733" lon="12.834959"><ele>584.80</ele><time>2026-01-01T00:00:31Z</time></trkpt><trkpt lat="47.722955" lon="12.834673"><ele>588.10</ele><time>2026-01-01T00:00:32Z</time></trkpt><trkpt lat="47.723011" lon="12.834478"><ele>589.60</ele><time>2026-01-01T00:00:33Z</time></trkpt><trkpt lat="47.723092" lon="12.834198"><ele>591.80</ele><time>2026-01-01T00:00:34Z</time></trkpt><trkpt lat="47.723348" lon="12.832873"><ele>604.90</ele><time>2026-01-01T00:00:35Z</time></trkpt><trkpt lat="47.723545" lon="12.832281"><ele>610.90</ele><time>2026-01-01T00:00:36Z</time></trkpt><trkpt lat="47.723668" lon="12.831725"><ele>616.90</ele><time>2026-01-01T00:00:37Z</time></trkpt><trkpt lat="47.723717" lon="12.831227"><ele>623.10</ele><time>2026-01-01T00:00:38Z</time></trkpt><trkpt lat="47.723764" lon="12.830333"><ele>636.30</ele><time>2026-01-01T00:00:39Z</time></trkpt><trkpt lat="47.724008" lon="12.829098"><ele>661.10</ele><time>2026-01-01T00:00:40Z</time></trkpt><trkpt lat="47.724121" lon="12.829069"><ele>664.90</ele><time>2026-01-01T00:00:41Z</time></trkpt><trkpt lat="47.724544" lon="12.829142"><ele>679.80</ele><time>2026-01-01T00:00:42Z</time></trkpt><trkpt lat="47.724628" lon="12.829018"><ele>683.80</ele><time>2026-01-01T00:00:43Z</time></trkpt><trkpt lat="47.724702" lon="12.828754"><ele>689.90</ele><time>2026-01-01T00:00:44Z</time></trkpt><trkpt lat="47.724845" lon="12.828666"><ele>694.30</ele><time>2026-01-01T00:00:45Z</time></trkpt><trkpt lat="47.725202" lon="12.828568"><ele>703.50</ele><time>2026-01-01T00:00:46Z</time></trkpt><trkpt lat="47.725361" lon="12.828579"><ele>706.80</ele><time>2026-01-01T00:00:47Z</time></trkpt><trkpt lat="47.725446" lon="12.828393"><ele>709.70</ele><time>2026-01-01T00:00:48Z</time></trkpt><trkpt lat="47.725405" lon="12.828094"><ele>713.10</ele><time>2026-01-01T00:00:49Z</time></trkpt><trkpt lat="47.725274" lon="12.827698"><ele>717.30</ele><time>2026-01-01T00:00:50Z</time></trkpt><trkpt lat="47.725136" lon="12.827616"><ele>719.10</ele><time>2026-01-01T00:00:51Z</time></trkpt><trkpt lat="47.725030" lon="12.827328"><ele>721.40</ele><time>2026-01-01T00:00:52Z</time></trkpt><trkpt lat="47.725040" lon="12.827249"><ele>721.90</ele><time>2026-01-01T00:00:53Z</time></trkpt><trkpt lat="47.725119" lon="12.827229"><ele>722.50</ele><time>2026-01-01T00:00:54Z</time></trkpt><trkpt lat="47.725154" lon="12.827061"><ele>723.30</ele><time>2026-01-01T00:00:55Z</time></trkpt><trkpt lat="47.725083" lon="12.826304"><ele>727.50</ele><time>2026-01-01T00:00:56Z</time></trkpt><trkpt lat="47.725020" lon="12.825888"><ele>731.10</ele><time>2026-01-01T00:00:57Z</time></trkpt><trkpt lat="47.725014" lon="12.825442"><ele>735.90</ele><time>2026-01-01T00:00:58Z</time></trkpt><trkpt lat="47.724804" lon="12.825033"><ele>742.00</ele><time>2026-01-01T00:00:59Z</time></trkpt><trkpt lat="47.724776" lon="12.824858"><ele>744.30</ele><time>2026-01-01T00:01:00Z</time></trkpt><trkpt lat="47.724801" lon="12.824723"><ele>746.10</ele><time>2026-01-01T00:01:01Z</time></trkpt><trkpt lat="47.724917" lon="12.824887"><ele>749.30</ele><time>2026-01-01T00:01:02Z</time></trkpt><trkpt lat="47.724950" lon="12.824887"><ele>749.90</ele><time>2026-01-01T00:01:03Z</time></trkpt><trkpt lat="47.724978" lon="12.824887"><ele>750.50</ele><time>2026-01-01T00:01:04Z</time></trkpt><trkpt lat="47.724915" lon="12.824635"><ele>754.30</ele><time>2026-01-01T00:01:05Z</time></trkpt><trkpt lat="47.725016" lon="12.824732"><ele>756.90</ele><time>2026-01-01T00:01:06Z</time></trkpt><trkpt lat="47.725046" lon="12.824820"><ele>758.40</ele><time>2026-01-01T00:01:07Z</time></trkpt><trkpt lat="47.725107" lon="12.824879"><ele>760.10</ele><time>2026-01-01T00:01:08Z</time></trkpt><trkpt lat="47.725051" lon="12.824581"><ele>765.20</ele><time>2026-01-01T00:01:09Z</time></trkpt><trkpt lat="47.725095" lon="12.824595"><ele>766.30</ele><time>2026-01-01T00:01:10Z</time></trkpt><trkpt lat="47.725142" lon="12.824662"><ele>768.00</ele><time>2026-01-01T00:01:11Z</time></trkpt><trkpt lat="47.725163" lon="12.824758"><ele>769.80</ele><time>2026-01-01T00:01:12Z</time></trkpt><trkpt lat="47.725236" lon="12.824807"><ele>771.80</ele><time>2026-01-01T00:01:13Z</time></trkpt><trkpt lat="47.725267" lon="12.824791"><ele>772.70</ele><time>2026-01-01T00:01:14Z</time></trkpt><trkpt lat="47.725274" lon="12.824685"><ele>774.40</ele><time>2026-01-01T00:01:15Z</time></trkpt><trkpt lat="47.725219" lon="12.824368"><ele>779.70</ele><time>2026-01-01T00:01:16Z</time></trkpt><trkpt lat="47.725322" lon="12.824544"><ele>783.40</ele><time>2026-01-01T00:01:17Z</time></trkpt><trkpt lat="47.725353" lon="12.824306"><ele>787.00</ele><time>2026-01-01T00:01:18Z</time></trkpt><trkpt lat="47.725377" lon="12.824392"><ele>788.30</ele><time>2026-01-01T00:01:19Z</time></trkpt><trkpt lat="47.725415" lon="12.824397"><ele>789.10</ele><time>2026-01-01T00:01:20Z</time></trkpt><trkpt lat="47.725361" lon="12.823724"><ele>797.90</ele><time>2026-01-01T00:01:21Z</time></trkpt><trkpt lat="47.725339" lon="12.823445"><ele>801.10</ele><time>2026-01-01T00:01:22Z</time></trkpt><trkpt lat="47.725334" lon="12.823380"><ele>801.80</ele><time>2026-01-01T00:01:23Z</time></trkpt><trkpt lat="47.725337" lon="12.823114"><ele>804.50</ele><time>2026-01-01T00:01:24Z</time></trkpt><trkpt lat="47.725300" lon="12.822807"><ele>807.60</ele><time>2026-01-01T00:01:25Z</time></trkpt><trkpt lat="47.725268" lon="12.822722"><ele>808.50</ele><time>2026-01-01T00:01:26Z</time></trkpt><trkpt lat="47.725164" lon="12.822445"><ele>811.50</ele><time>2026-01-01T00:01:27Z</time></trkpt><trkpt lat="47.725050" lon="12.822248"><ele>814.10</ele><time>2026-01-01T00:01:28Z</time></trkpt><trkpt lat="47.725023" lon="12.821904"><ele>817.70</ele><time>2026-01-01T00:01:29Z</time></trkpt><trkpt lat="47.724970" lon="12.821725"><ele>819.90</ele><time>2026-01-01T00:01:30Z</time></trkpt><trkpt lat="47.724995" lon="12.821551"><ele>821.90</ele><time>2026-01-01T00:01:31Z</time></trkpt><trkpt lat="47.725155" lon="12.821033"><ele>829.40</ele><time>2026-01-01T00:01:32Z</time></trkpt><trkpt lat="47.725143" lon="12.820877"><ele>831.70</ele><time>2026-01-01T00:01:33Z</time></trkpt><trkpt lat="47.725202" lon="12.820556"><ele>836.90</ele><time>2026-01-01T00:01:34Z</time></trkpt><trkpt lat="47.725322" lon="12.820267"><ele>842.40</ele><time>2026-01-01T00:01:35Z</time></trkpt><trkpt lat="47.725726" lon="12.819969"><ele>852.30</ele><time>2026-01-01T00:01:36Z</time></trkpt><trkpt lat="47.725911" lon="12.819630"><ele>857.60</ele><time>2026-01-01T00:01:37Z</time></trkpt><trkpt lat="47.726036" lon="12.819255"><ele>861.70</ele><time>2026-01-01T00:01:38Z</time></trkpt><trkpt lat="47.726006" lon="12.819054"><ele>863.20</ele><time>2026-01-01T00:01:39Z</time></trkpt><trkpt lat="47.725932" lon="12.818876"><ele>864.50</ele><time>2026-01-01T00:01:40Z</time></trkpt><trkpt lat="47.725726" lon="12.818571"><ele>866.00</ele><time>2026-01-01T00:01:41Z</time></trkpt><trkpt lat="47.725669" lon="12.818239"><ele>866.20</ele><time>2026-01-01T00:01:42Z</time></trkpt><trkpt lat="47.725775" lon="12.818026"><ele>865.60</ele><time>2026-01-01T00:01:43Z</time></trkpt><trkpt lat="47.725966" lon="12.817915"><ele>864.40</ele><time>2026-01-01T00:01:44Z</time></trkpt><trkpt lat="47.725973" lon="12.817659"><ele>863.00</ele><time>2026-01-01T00:01:45Z</time></trkpt><trkpt lat="47.725926" lon="12.817233"><ele>860.20</ele><time>2026-01-01T00:01:46Z</time></trkpt><trkpt lat="47.726027" lon="12.816813"><ele>856.60</ele><time>2026-01-01T00:01:47Z</time></trkpt><trkpt lat="47.726159" lon="12.816512"><ele>853.20</ele><time>2026-01-01T00:01:48Z</time></trkpt><trkpt lat="47.726192" lon="12.816348"><ele>851.40</ele><time>2026-01-01T00:01:49Z</time></trkpt><trkpt lat="47.726172" lon="12.815976"><ele>847.40</ele><time>2026-01-01T00:01:50Z</time></trkpt><trkpt lat="47.726074" lon="12.815405"><ele>841.00</ele><time>2026-01-01T00:01:51Z</time></trkpt><trkpt lat="47.726092" lon="12.815030"><ele>837.10</ele><time>2026-01-01T00:01:52Z</time></trkpt><trkpt lat="47.726156" lon="12.814470"><ele>831.00</ele><time>2026-01-01T00:01:53Z</time></trkpt><trkpt lat="47.726197" lon="12.814292"><ele>829.00</ele><time>2026-01-01T00:01:54Z</time></trkpt><trkpt lat="47.726324" lon="12.814166"><ele>826.50</ele><time>2026-01-01T00:01:55Z</time></trkpt><trkpt lat="47.726514" lon="12.814109"><ele>823.30</ele><time>2026-01-01T00:01:56Z</time></trkpt><trkpt lat="47.726618" lon="12.814028"><ele>821.50</ele><time>2026-01-01T00:01:57Z</time></trkpt><trkpt lat="47.726661" lon="12.813945"><ele>820.40</ele><time>2026-01-01T00:01:58Z</time></trkpt><trkpt lat="47.726646" lon="12.813824"><ele>819.10</ele><time>2026-01-01T00:01:59Z</time></trkpt><trkpt lat="47.726597" lon="12.813728"><ele>817.90</ele><time>2026-01-01T00:02:00Z</time></trkpt><trkpt lat="47.726491" lon="12.813147"><ele>812.00</ele><time>2026-01-01T00:02:01Z</time></trkpt><trkpt lat="47.726564" lon="12.812558"><ele>806.20</ele><time>2026-01-01T00:02:02Z</time></trkpt><trkpt lat="47.726501" lon="12.810783"><ele>789.80</ele><time>2026-01-01T00:02:03Z</time></trkpt><trkpt lat="47.726335" lon="12.810232"><ele>784.40</ele><time>2026-01-01T00:02:04Z</time></trkpt><trkpt lat="47.726147" lon="12.809821"><ele>779.80</ele><time>2026-01-01T00:02:05Z</time></trkpt><trkpt lat="47.725949" lon="12.809852"><ele>777.20</ele><time>2026-01-01T00:02:06Z</time></trkpt><trkpt lat="47.725923" lon="12.809651"><ele>775.50</ele><time>2026-01-01T00:02:07Z</time></trkpt><trkpt lat="47.725782" lon="12.809542"><ele>773.50</ele><time>2026-01-01T00:02:08Z</time></trkpt><trkpt lat="47.725772" lon="12.809217"><ele>770.90</ele><time>2026-01-01T00:02:09Z</time></trkpt><trkpt lat="47.725490" lon="12.808852"><ele>766.70</ele><time>2026-01-01T00:02:10Z</time></trkpt><trkpt lat="47.725344" lon="12.808387"><ele>763.70</ele><time>2026-01-01T00:02:11Z</time></trkpt><trkpt lat="47.724974" lon="12.807701"><ele>760.50</ele><time>2026-01-01T00:02:12Z</time></trkpt><trkpt lat="47.724603" lon="12.807093"><ele>758.30</ele><time>2026-01-01T00:02:13Z</time></trkpt><trkpt lat="47.724443" lon="12.807011"><ele>757.80</ele><time>2026-01-01T00:02:14Z</time></trkpt><trkpt lat="47.724207" lon="12.806891"><ele>757.20</ele><time>2026-01-01T00:02:15Z</time></trkpt><trkpt lat="47.723983" lon="12.806635"><ele>756.90</ele><time>2026-01-01T00:02:16Z</time></trkpt><trkpt lat="47.723951" lon="12.806605"><ele>756.80</ele><time>2026-01-01T00:02:17Z</time></trkpt><trkpt lat="47.723373" lon="12.806062"><ele>756.10</ele><time>2026-01-01T00:02:18Z</time></trkpt><trkpt lat="47.723211" lon="12.805829"><ele>756.30</ele><time>2026-01-01T00:02:19Z</time></trkpt><trkpt lat="47.722877" lon="12.805178"><ele>757.50</ele><time>2026-01-01T00:02:20Z</time></trkpt><trkpt lat="47.722129" lon="12.804390"><ele>758.90</ele><time>2026-01-01T00:02:21Z</time></trkpt><trkpt lat="47.721923" lon="12.804220"><ele>759.00</ele><time>2026-01-01T00:02:22Z</time></trkpt><trkpt lat="47.721870" lon="12.804177"><ele>759.00</ele><time>2026-01-01T00:02:23Z</time></trkpt><trkpt lat="47.721818" lon="12.804135"><ele>758.90</ele><time>2026-01-01T00:02:24Z</time></trkpt><trkpt lat="47.721681" lon="12.803779"><ele>758.70</ele><time>2026-01-01T00:02:25Z</time></trkpt><trkpt lat="47.721580" lon="12.803614"><ele>758.50</ele><time>2026-01-01T00:02:26Z</time></trkpt><trkpt lat="47.721398" lon="12.803407"><ele>758.00</ele><time>2026-01-01T00:02:27Z</time></trkpt><trkpt lat="47.721342" lon="12.803295"><ele>757.80</ele><time>2026-01-01T00:02:28Z</time></trkpt><trkpt lat="47.721329" lon="12.803145"><ele>757.50</ele><time>2026-01-01T00:02:29Z</time></trkpt><trkpt lat="47.721356" lon="12.802915"><ele>756.90</ele><time>2026-01-01T00:02:30Z</time></trkpt><trkpt lat="47.721318" lon="12.802826"><ele>756.70</ele><time>2026-01-01T00:02:31Z</time></trkpt><trkpt lat="47.721276" lon="12.802795"><ele>756.50</ele><time>2026-01-01T00:02:32Z</time></trkpt><trkpt lat="47.721063" lon="12.802769"><ele>755.70</ele><time>2026-01-01T00:02:33Z</time></trkpt><trkpt lat="47.720635" lon="12.802313"><ele>753.00</ele><time>2026-01-01T00:02:34Z</time></trkpt><trkpt lat="47.720381" lon="12.802104"><ele>751.20</ele><time>2026-01-01T00:02:35Z</time></trkpt><trkpt lat="47.719689" lon="12.801661"><ele>746.10</ele><time>2026-01-01T00:02:36Z</time></trkpt><trkpt lat="47.719522" lon="12.801440"><ele>744.50</ele><time>2026-01-01T00:02:37Z</time></trkpt><trkpt lat="47.719346" lon="12.801115"><ele>742.50</ele><time>2026-01-01T00:02:38Z</time></trkpt><trkpt lat="47.719303" lon="12.800776"><ele>740.80</ele><time>2026-01-01T00:02:39Z</time></trkpt><trkpt lat="47.719344" lon="12.800500"><ele>739.40</ele><time>2026-01-01T00:02:40Z</time></trkpt><trkpt lat="47.718927" lon="12.799606"><ele>734.40</ele><time>2026-01-01T00:02:41Z</time></trkpt><trkpt lat="47.718798" lon="12.799182"><ele>731.60</ele><time>2026-01-01T00:02:42Z</time></trkpt><trkpt lat="47.718795" lon="12.799105"><ele>731.10</ele><time>2026-01-01T00:02:43Z</time></trkpt><trkpt lat="47.718861" lon="12.798878"><ele>729.60</ele><time>2026-01-01T00:02:44Z</time></trkpt><trkpt lat="47.718863" lon="12.798783"><ele>729.10</ele><time>2026-01-01T00:02:45Z</time></trkpt><trkpt lat="47.718724" lon="12.798686"><ele>727.70</ele><time>2026-01-01T00:02:46Z</time></trkpt><trkpt lat="47.718534" lon="12.798765"><ele>725.80</ele><time>2026-01-01T00:02:47Z</time></trkpt><trkpt lat="47.718513" lon="12.798830"><ele>725.30</ele><time>2026-01-01T00:02:48Z</time></trkpt><trkpt lat="47.718432" lon="12.799062"><ele>723.60</ele><time>2026-01-01T00:02:49Z</time></trkpt><trkpt lat="47.718398" lon="12.799225"><ele>722.40</ele><time>2026-01-01T00:02:50Z</time></trkpt><trkpt lat="47.718394" lon="12.799398"><ele>721.20</ele><time>2026-01-01T00:02:51Z</time></trkpt><trkpt lat="47.718426" lon="12.799702"><ele>719.10</ele><time>2026-01-01T00:02:52Z</time></trkpt><trkpt lat="47.718508" lon="12.800024"><ele>716.40</ele><time>2026-01-01T00:02:53Z</time></trkpt><trkpt lat="47.718542" lon="12.800273"><ele>714.50</ele><time>2026-01-01T00:02:54Z</time></trkpt><trkpt lat="47.718507" lon="12.800580"><ele>712.70</ele><time>2026-01-01T00:02:55Z</time></trkpt><trkpt lat="47.718438" lon="12.800877"><ele>710.90</ele><time>2026-01-01T00:02:56Z</time></trkpt><trkpt lat="47.718375" lon="12.800955"><ele>710.30</ele><time>2026-01-01T00:02:57Z</time></trkpt><trkpt lat="47.718294" lon="12.800981"><ele>709.70</ele><time>2026-01-01T00:02:58Z</time></trkpt><trkpt lat="47.718214" lon="12.800936"><ele>709.10</ele><time>2026-01-01T00:02:59Z</time></trkpt><trkpt lat="47.718104" lon="12.800875"><ele>708.30</ele><time>2026-01-01T00:03:00Z</time></trkpt><trkpt lat="47.717480" lon="12.800514"><ele>705.10</ele><time>2026-01-01T00:03:01Z</time></trkpt><trkpt lat="47.717340" lon="12.800414"><ele>704.80</ele><time>2026-01-01T00:03:02Z</time></trkpt><trkpt lat="47.717294" lon="12.800331"><ele>704.70</ele><time>2026-01-01T00:03:03Z</time></trkpt><trkpt lat="47.717086" lon="12.800507"><ele>704.40</ele><time>2026-01-01T00:03:04Z</time></trkpt><trkpt lat="47.717052" lon="12.800622"><ele>704.40</ele><time>2026-01-01T00:03:05Z</time></trkpt><trkpt lat="47.717061" lon="12.800757"><ele>704.40</ele><time>2026-01-01T00:03:06Z</time></trkpt><trkpt lat="47.717242" lon="12.801084"><ele>704.60</ele><time>2026-01-01T00:03:07Z</time></trkpt><trkpt lat="47.717547" lon="12.801792"><ele>706.00</ele><time>2026-01-01T00:03:08Z</time></trkpt><trkpt lat="47.717587" lon="12.801972"><ele>706.50</ele><time>2026-01-01T00:03:09Z</time></trkpt><trkpt lat="47.718021" lon="12.802159"><ele>708.30</ele><time>2026-01-01T00:03:10Z</time></trkpt><trkpt lat="47.718622" lon="12.802709"><ele>712.00</ele><time>2026-01-01T00:03:11Z</time></trkpt><trkpt lat="47.719116" lon="12.803000"><ele>715.10</ele><time>2026-01-01T00:03:12Z</time></trkpt><trkpt lat="47.719423" lon="12.803289"><ele>717.70</ele><time>2026-01-01T00:03:13Z</time></trkpt><trkpt lat="47.719625" lon="12.803715"><ele>720.40</ele><time>2026-01-01T00:03:14Z</time></trkpt><trkpt lat="47.719872" lon="12.804199"><ele>724.00</ele><time>2026-01-01T00:03:15Z</time></trkpt><trkpt lat="47.720229" lon="12.804595"><ele>728.20</ele><time>2026-01-01T00:03:16Z</time></trkpt><trkpt lat="47.721167" lon="12.805328"><ele>737.70</ele><time>2026-01-01T00:03:17Z</time></trkpt><trkpt lat="47.722072" lon="12.806316"><ele>743.50</ele><time>2026-01-01T00:03:18Z</time></trkpt><trkpt lat="47.723221" lon="12.807192"><ele>750.50</ele><time>2026-01-01T00:03:19Z</time></trkpt><trkpt lat="47.723472" lon="12.807528"><ele>751.90</ele><time>2026-01-01T00:03:20Z</time></trkpt><trkpt lat="47.723813" lon="12.807889"><ele>753.10</ele><time>2026-01-01T00:03:21Z</time></trkpt><trkpt lat="47.724040" lon="12.807973"><ele>753.70</ele><time>2026-01-01T00:03:22Z</time></trkpt><trkpt lat="47.724435" lon="12.807843"><ele>755.10</ele><time>2026-01-01T00:03:23Z</time></trkpt><trkpt lat="47.724568" lon="12.807876"><ele>755.50</ele><time>2026-01-01T00:03:24Z</time></trkpt><trkpt lat="47.724695" lon="12.808000"><ele>756.00</ele><time>2026-01-01T00:03:25Z</time></trkpt><trkpt lat="47.724881" lon="12.808450"><ele>757.10</ele><time>2026-01-01T00:03:26Z</time></trkpt><trkpt lat="47.725468" lon="12.809844"><ele>768.30</ele><time>2026-01-01T00:03:27Z</time></trkpt><trkpt lat="47.725859" lon="12.810419"><ele>777.10</ele><time>2026-01-01T00:03:28Z</time></trkpt><trkpt lat="47.725985" lon="12.810707"><ele>781.00</ele><time>2026-01-01T00:03:29Z</time></trkpt><trkpt lat="47.726022" lon="12.811010"><ele>784.70</ele><time>2026-01-01T00:03:30Z</time></trkpt><trkpt lat="47.726163" lon="12.813140"><ele>809.60</ele><time>2026-01-01T00:03:31Z</time></trkpt><trkpt lat="47.726157" lon="12.813585"><ele>813.80</ele><time>2026-01-01T00:03:32Z</time></trkpt><trkpt lat="47.726231" lon="12.813708"><ele>815.30</ele><time>2026-01-01T00:03:33Z</time></trkpt><trkpt lat="47.726337" lon="12.813738"><ele>816.70</ele><time>2026-01-01T00:03:34Z</time></trkpt><trkpt lat="47.726513" lon="12.813682"><ele>819.10</ele><time>2026-01-01T00:03:35Z</time></trkpt><trkpt lat="47.726597" lon="12.813728"><ele>820.20</ele><time>2026-01-01T00:03:36Z</time></trkpt><trkpt lat="47.726646" lon="12.813824"><ele>821.30</ele><time>2026-01-01T00:03:37Z</time></trkpt><trkpt lat="47.726661" lon="12.813945"><ele>822.40</ele><time>2026-01-01T00:03:38Z</time></trkpt><trkpt lat="47.726618" lon="12.814028"><ele>823.30</ele><time>2026-01-01T00:03:39Z</time></trkpt><trkpt lat="47.726514" lon="12.814109"><ele>824.90</ele><time>2026-01-01T00:03:40Z</time></trkpt><trkpt lat="47.726324" lon="12.814166"><ele>827.50</ele><time>2026-01-01T00:03:41Z</time></trkpt><trkpt lat="47.726197" lon="12.814292"><ele>829.60</ele><time>2026-01-01T00:03:42Z</time></trkpt><trkpt lat="47.726156" lon="12.814470"><ele>831.40</ele><time>2026-01-01T00:03:43Z</time></trkpt><trkpt lat="47.726092" lon="12.815030"><ele>837.10</ele><time>2026-01-01T00:03:44Z</time></trkpt><trkpt lat="47.726074" lon="12.815405"><ele>841.00</ele><time>2026-01-01T00:03:45Z</time></trkpt><trkpt lat="47.726172" lon="12.815976"><ele>847.40</ele><time>2026-01-01T00:03:46Z</time></trkpt><trkpt lat="47.726192" lon="12.816348"><ele>851.40</ele><time>2026-01-01T00:03:47Z</time></trkpt><trkpt lat="47.726159" lon="12.816512"><ele>853.20</ele><time>2026-01-01T00:03:48Z</time></trkpt><trkpt lat="47.726027" lon="12.816813"><ele>856.60</ele><time>2026-01-01T00:03:49Z</time></trkpt><trkpt lat="47.725926" lon="12.817233"><ele>860.20</ele><time>2026-01-01T00:03:50Z</time></trkpt><trkpt lat="47.725973" lon="12.817659"><ele>863.00</ele><time>2026-01-01T00:03:51Z</time></trkpt><trkpt lat="47.725966" lon="12.817915"><ele>864.40</ele><time>2026-01-01T00:03:52Z</time></trkpt><trkpt lat="47.725775" lon="12.818026"><ele>865.70</ele><time>2026-01-01T00:03:53Z</time></trkpt><trkpt lat="47.725669" lon="12.818239"><ele>866.40</ele><time>2026-01-01T00:03:54Z</time></trkpt><trkpt lat="47.725726" lon="12.818571"><ele>866.80</ele><time>2026-01-01T00:03:55Z</time></trkpt><trkpt lat="47.725932" lon="12.818876"><ele>866.60</ele><time>2026-01-01T00:03:56Z</time></trkpt><trkpt lat="47.726006" lon="12.819054"><ele>866.30</ele><time>2026-01-01T00:03:57Z</time></trkpt><trkpt lat="47.726036" lon="12.819255"><ele>865.80</ele><time>2026-01-01T00:03:58Z</time></trkpt><trkpt lat="47.726019" lon="12.820004"><ele>863.30</ele><time>2026-01-01T00:03:59Z</time></trkpt><trkpt lat="47.726063" lon="12.820120"><ele>862.70</ele><time>2026-01-01T00:04:00Z</time></trkpt><trkpt lat="47.726234" lon="12.820239"><ele>861.40</ele><time>2026-01-01T00:04:01Z</time></trkpt><trkpt lat="47.726333" lon="12.820437"><ele>860.10</ele><time>2026-01-01T00:04:02Z</time></trkpt><trkpt lat="47.726425" lon="12.820755"><ele>857.80</ele><time>2026-01-01T00:04:03Z</time></trkpt><trkpt lat="47.726439" lon="12.820945"><ele>856.50</ele><time>2026-01-01T00:04:04Z</time></trkpt><trkpt lat="47.726269" lon="12.821519"><ele>851.40</ele><time>2026-01-01T00:04:05Z</time></trkpt><trkpt lat="47.726367" lon="12.821910"><ele>847.40</ele><time>2026-01-01T00:04:06Z</time></trkpt><trkpt lat="47.726551" lon="12.821934"><ele>844.60</ele><time>2026-01-01T00:04:07Z</time></trkpt><trkpt lat="47.726636" lon="12.821990"><ele>843.20</ele><time>2026-01-01T00:04:08Z</time></trkpt><trkpt lat="47.726650" lon="12.822270"><ele>840.20</ele><time>2026-01-01T00:04:09Z</time></trkpt><trkpt lat="47.726824" lon="12.822685"><ele>834.80</ele><time>2026-01-01T00:04:10Z</time></trkpt><trkpt lat="47.726993" lon="12.823280"><ele>827.60</ele><time>2026-01-01T00:04:11Z</time></trkpt><trkpt lat="47.727005" lon="12.823529"><ele>824.90</ele><time>2026-01-01T00:04:12Z</time></trkpt><trkpt lat="47.726938" lon="12.823745"><ele>822.40</ele><time>2026-01-01T00:04:13Z</time></trkpt><trkpt lat="47.726709" lon="12.823969"><ele>818.30</ele><time>2026-01-01T00:04:14Z</time></trkpt><trkpt lat="47.726639" lon="12.824114"><ele>816.60</ele><time>2026-01-01T00:04:15Z</time></trkpt><trkpt lat="47.726639" lon="12.824310"><ele>814.90</ele><time>2026-01-01T00:04:16Z</time></trkpt><trkpt lat="47.726695" lon="12.824457"><ele>813.40</ele><time>2026-01-01T00:04:17Z</time></trkpt><trkpt lat="47.726856" lon="12.824691"><ele>810.70</ele><time>2026-01-01T00:04:18Z</time></trkpt><trkpt lat="47.726964" lon="12.824912"><ele>808.60</ele><time>2026-01-01T00:04:19Z</time></trkpt><trkpt lat="47.727073" lon="12.825229"><ele>806.00</ele><time>2026-01-01T00:04:20Z</time></trkpt><trkpt lat="47.727094" lon="12.825420"><ele>804.70</ele><time>2026-01-01T00:04:21Z</time></trkpt><trkpt lat="47.727049" lon="12.826159"><ele>799.20</ele><time>2026-01-01T00:04:22Z</time></trkpt><trkpt lat="47.727267" lon="12.826939"><ele>791.50</ele><time>2026-01-01T00:04:23Z</time></trkpt><trkpt lat="47.727279" lon="12.827060"><ele>790.30</ele><time>2026-01-01T00:04:24Z</time></trkpt><trkpt lat="47.727246" lon="12.827232"><ele>788.40</ele><time>2026-01-01T00:04:25Z</time></trkpt><trkpt lat="47.727100" lon="12.827621"><ele>783.20</ele><time>2026-01-01T00:04:26Z</time></trkpt><trkpt lat="47.727094" lon="12.828052"><ele>777.80</ele><time>2026-01-01T00:04:27Z</time></trkpt><trkpt lat="47.727010" lon="12.828183"><ele>775.40</ele><time>2026-01-01T00:04:28Z</time></trkpt><trkpt lat="47.726755" lon="12.828314"><ele>770.10</ele><time>2026-01-01T00:04:29Z</time></trkpt><trkpt lat="47.726709" lon="12.828366"><ele>769.00</ele><time>2026-01-01T00:04:30Z</time></trkpt><trkpt lat="47.726675" lon="12.828372"><ele>768.30</ele><time>2026-01-01T00:04:31Z</time></trkpt><trkpt lat="47.726572" lon="12.828277"><ele>765.90</ele><time>2026-01-01T00:04:32Z</time></trkpt><trkpt lat="47.726483" lon="12.828267"><ele>764.20</ele><time>2026-01-01T00:04:33Z</time></trkpt><trkpt lat="47.726409" lon="12.828328"><ele>762.50</ele><time>2026-01-01T00:04:34Z</time></trkpt><trkpt lat="47.726342" lon="12.828464"><ele>760.30</ele><time>2026-01-01T00:04:35Z</time></trkpt><trkpt lat="47.726390" lon="12.828903"><ele>754.70</ele><time>2026-01-01T00:04:36Z</time></trkpt><trkpt lat="47.726393" lon="12.829572"><ele>746.30</ele><time>2026-01-01T00:04:37Z</time></trkpt><trkpt lat="47.726308" lon="12.829468"><ele>744.20</ele><time>2026-01-01T00:04:38Z</time></trkpt><trkpt lat="47.726233" lon="12.829220"><ele>740.60</ele><time>2026-01-01T00:04:39Z</time></trkpt><trkpt lat="47.726070" lon="12.829059"><ele>736.50</ele><time>2026-01-01T00:04:40Z</time></trkpt><trkpt lat="47.725986" lon="12.828785"><ele>731.90</ele><time>2026-01-01T00:04:41Z</time></trkpt><trkpt lat="47.725835" lon="12.828679"><ele>727.80</ele><time>2026-01-01T00:04:42Z</time></trkpt><trkpt lat="47.725664" lon="12.828621"><ele>723.10</ele><time>2026-01-01T00:04:43Z</time></trkpt><trkpt lat="47.725361" lon="12.828579"><ele>714.00</ele><time>2026-01-01T00:04:44Z</time></trkpt><trkpt lat="47.725202" lon="12.828568"><ele>708.90</ele><time>2026-01-01T00:04:45Z</time></trkpt><trkpt lat="47.724845" lon="12.828666"><ele>696.40</ele><time>2026-01-01T00:04:46Z</time></trkpt><trkpt lat="47.724702" lon="12.828754"><ele>690.90</ele><time>2026-01-01T00:04:47Z</time></trkpt><trkpt lat="47.724628" lon="12.829018"><ele>684.10</ele><time>2026-01-01T00:04:48Z</time></trkpt><trkpt lat="47.724544" lon="12.829142"><ele>679.90</ele><time>2026-01-01T00:04:49Z</time></trkpt><trkpt lat="47.724121" lon="12.829069"><ele>664.90</ele><time>2026-01-01T00:04:50Z</time></trkpt><trkpt lat="47.724008" lon="12.829098"><ele>661.10</ele><time>2026-01-01T00:04:51Z</time></trkpt><trkpt lat="47.723764" lon="12.830333"><ele>636.30</ele><time>2026-01-01T00:04:52Z</time></trkpt><trkpt lat="47.723717" lon="12.831227"><ele>623.10</ele><time>2026-01-01T00:04:53Z</time></trkpt><trkpt lat="47.723668" lon="12.831725"><ele>616.90</ele><time>2026-01-01T00:04:54Z</time></trkpt><trkpt lat="47.723545" lon="12.832281"><ele>610.90</ele><time>2026-01-01T00:04:55Z</time></trkpt><trkpt lat="47.723348" lon="12.832873"><ele>604.90</ele><time>2026-01-01T00:04:56Z</time></trkpt><trkpt lat="47.723092" lon="12.834198"><ele>591.80</ele><time>2026-01-01T00:04:57Z</time></trkpt><trkpt lat="47.723011" lon="12.834478"><ele>589.60</ele><time>2026-01-01T00:04:58Z</time></trkpt><trkpt lat="47.722955" lon="12.834673"><ele>588.10</ele><time>2026-01-01T00:04:59Z</time></trkpt><trkpt lat="47.722733" lon="12.834959"><ele>584.80</ele><time>2026-01-01T00:05:00Z</time></trkpt><trkpt lat="47.722605" lon="12.835383"><ele>581.10</ele><time>2026-01-01T00:05:01Z</time></trkpt><trkpt lat="47.722422" lon="12.835863"><ele>576.90</ele><time>2026-01-01T00:05:02Z</time></trkpt><trkpt lat="47.722413" lon="12.835819"><ele>576.60</ele><time>2026-01-01T00:05:03Z</time></trkpt><trkpt lat="47.722383" lon="12.835683"><ele>575.50</ele><time>2026-01-01T00:05:04Z</time></trkpt><trkpt lat="47.722383" lon="12.835421"><ele>573.80</ele><time>2026-01-01T00:05:05Z</time></trkpt><trkpt lat="47.722339" lon="12.835235"><ele>572.60</ele><time>2026-01-01T00:05:06Z</time></trkpt><trkpt lat="47.722329" lon="12.834765"><ele>570.10</ele><time>2026-01-01T00:05:07Z</time></trkpt><trkpt lat="47.722222" lon="12.834880"><ele>569.10</ele><time>2026-01-01T00:05:08Z</time></trkpt><trkpt lat="47.722164" lon="12.834896"><ele>568.60</ele><time>2026-01-01T00:05:09Z</time></trkpt><trkpt lat="47.722097" lon="12.834885"><ele>568.00</ele><time>2026-01-01T00:05:10Z</time></trkpt><trkpt lat="47.722003" lon="12.834817"><ele>567.00</ele><time>2026-01-01T00:05:11Z</time></trkpt><trkpt lat="47.721691" lon="12.834131"><ele>562.30</ele><time>2026-01-01T00:05:12Z</time></trkpt><trkpt lat="47.721609" lon="12.834000"><ele>561.50</ele><time>2026-01-01T00:05:13Z</time></trkpt><trkpt lat="47.720949" lon="12.833269"><ele>555.00</ele><time>2026-01-01T00:05:14Z</time></trkpt><trkpt lat="47.720748" lon="12.832762"><ele>551.70</ele><time>2026-01-01T00:05:15Z</time></trkpt><trkpt lat="47.720533" lon="12.832447"><ele>548.60</ele><time>2026-01-01T00:05:16Z</time></trkpt><trkpt lat="47.720513" lon="12.832338"><ele>547.70</ele><time>2026-01-01T00:05:17Z</time></trkpt><trkpt lat="47.720309" lon="12.831929"><ele>543.60</ele><time>2026-01-01T00:05:18Z</time></trkpt><trkpt lat="47.720120" lon="12.831598"><ele>539.90</ele><time>2026-01-01T00:05:19Z</time></trkpt><trkpt lat="47.719767" lon="12.831164"><ele>534.90</ele><time>2026-01-01T00:05:20Z</time></trkpt><trkpt lat="47.719474" lon="12.830948"><ele>533.00</ele><time>2026-01-01T00:05:21Z</time></trkpt><trkpt lat="47.719317" lon="12.830874"><ele>532.40</ele><time>2026-01-01T00:05:22Z</time></trkpt><trkpt lat="47.719219" lon="12.830877"><ele>532.20</ele><time>2026-01-01T00:05:23Z</time></trkpt><trkpt lat="47.718823" lon="12.831149"><ele>531.90</ele><time>2026-01-01T00:05:24Z</time></trkpt><trkpt lat="47.718598" lon="12.831420"><ele>532.40</ele><time>2026-01-01T00:05:25Z</time></trkpt><trkpt lat="47.718518" lon="12.831527"><ele>532.80</ele><time>2026-01-01T00:05:26Z</time></trkpt><trkpt lat="47.718465" lon="12.831591"><ele>533.00</ele><time>2026-01-01T00:05:27Z</time></trkpt><trkpt lat="47.718426" lon="12.831642"><ele>533.20</ele><time>2026-01-01T00:05:28Z</time></trkpt><trkpt lat="47.718420" lon="12.831774"><ele>533.50</ele><time>2026-01-01T00:05:29Z</time></trkpt></trkseg></trk></gpx>